STARLINK-30944          
1 58451U 23183Q   24298.54709806 -.00001919  00000+0 -12702-3 0  9990
2 58451  43.0039 246.0297 0000654 296.0545  64.0230 15.02537692 51225
STARLINK-30928          
1 58452U 23183R   24298.87615184  .00002258  00000+0  18216-3 0  9993
2 58452  43.0009 244.1961 0000609 241.6136 118.4645 15.02539507 51380
STARLINK-30957          
1 58453U 23183S   24298.86294759  .00001911  00000+0  15648-3 0  9995
2 58453  43.0029 244.9521 0001282 257.8792 102.1906 15.02540038 51378
STARLINK-30966          
1 58454U 23183T   24298.26132760 -.00000543  00000+0 -25142-4 0  9996
2 58454  43.0002 248.1782 0000136 273.3293  86.7534 15.02534490 51280
STARLINK-30935          
1 58455U 23183U   24298.83964391  .00001397  00000+0  11846-3 0  9994
2 58455  42.9956 244.7675 0001811 278.8498  81.2139 15.02531572 51399
STARLINK-30960          
1 58456U 23183V   24298.83367022  .00035981  00000+0  25810-2 0  9994
2 58456  43.0016 244.7366 0001701 224.1770 135.8937 15.03742007 51391
STARLINK-30958          
1 58457U 23183W   24298.55819473  .00000063  00000+0  19761-4 0  9999
2 58457  43.0046 246.1134 0001431 290.8811  69.1879 15.02536507 51333
STARLINK-30962          
1 58458U 23183X   24298.86616436  .00002887  00000+0  22869-3 0  9996
2 58458  43.0042 244.1269 0000795 279.0236  81.0517 15.02536548 51190
STARLINK-30977          
1 58459U 23183Y   24298.83630771 -.00001124  00000+0 -68176-4 0  9999
2 58459  43.0009 244.7515 0000976 269.8267  90.2463 15.02536473 51375
STARLINK-30947          
1 58473U 23186A   24298.28592306  .00001636  00000+0  13618-3 0  9994
2 58473  43.0047 272.2633 0001105 272.6489  87.4227 15.02528494 50428
STARLINK-30995          
1 58474U 23186B   24299.25001157  .00502840  00000+0  13595-1 0  9997
2 58474  43.0029 213.8551 0007076 208.3699 174.7821 15.34906613 51149
STARLINK-30941          
1 58475U 23186C   24298.41221581  .00000582  00000+0  58132-4 0  9995
2 58475  43.0044 271.4866 0001560 258.1697 101.8970 15.02536761 50445
STARLINK-30980          
1 58476U 23186D   24298.34241124 -.00000965  00000+0 -56423-4 0  9991
2 58476  43.0024 271.8236 0000977 254.1887 105.8847 15.02531876 50435
STARLINK-30965          
1 58477U 23186E   24298.29949886  .00002872  00000+0  22759-3 0  9997
2 58477  43.0040 259.3574 0001521 278.8378  81.2292 15.02533902 50572
STARLINK-30990          
1 58478U 23186F   24298.40556887  .00000288  00000+0  36401-4 0  9995
2 58478  43.0032 271.4394 0001136 195.9337 164.1470 15.02533508 50486
STARLINK-30974          
1 58479U 23186G   24299.18525237  .00136859  00000+0  16552-2 0  9994
2 58479  42.9996 111.2347 0016684 302.7349  57.1906 15.59344737 52504
STARLINK-30984          
1 58480U 23186H   24298.42540787 -.00001366  00000+0 -86047-4 0  9993
2 58480  42.9982 270.7283 0001026 333.5064  26.5726 15.02536335 50458
STARLINK-30956          
1 58481U 23186J   24298.24238076 -.00000228  00000+0 -18458-5 0  9997
2 58481  42.9997 247.5140 0000847 266.0831  93.9915 15.02536925 50702
STARLINK-30997          
1 58482U 23186K   24298.37558437  .00001436  00000+0  12136-3 0  9993
2 58482  43.0030 271.1822 0000673 269.7360  90.3405 15.02538787 50441
STARLINK-30994          
1 58483U 23186L   24298.78122648 -.00002112  00000+0 -70974-4 0  9999
2 58483  42.9983 204.9847 0000271 230.4363 129.6464 15.25902453 51240
STARLINK-30991          
1 58484U 23186M   24298.42209248  .00002003  00000+0  16333-3 0  9998
2 58484  43.0049 270.6932 0001180 269.4394  90.6313 15.02524277 50447
STARLINK-30979          
1 58485U 23186N   24298.33244343 -.00001447  00000+0 -92108-4 0  9992
2 58485  43.0054 271.7464 0001530 294.0942  65.9741 15.02521823 50420
STARLINK-31005          
1 58486U 23186P   24298.39554668  .00003355  00000+0  26314-3 0  9996
2 58486  43.0032 271.3548 0001414 270.1683  89.8997 15.02559097 50392
STARLINK-30987          
1 58487U 23186Q   24298.32575993 -.00000712  00000+0 -37617-4 0  9999
2 58487  43.0036 271.6918 0001356 265.2656  94.8031 15.02534724 50420
STARLINK-31000          
1 58488U 23186R   24298.38891515  .00000417  00000+0  45955-4 0  9991
2 58488  43.0036 271.3108 0000788 277.6099  82.4653 15.02540194 50437
STARLINK-30993          
1 58489U 23186S   24298.31913208 -.00020576  00000+0 -15152-2 0  9993
2 58489  43.0062 271.6458 0001569 283.5346  76.5322 15.02469934 50425
STARLINK-30978          
1 58490U 23186T   24298.31578795 -.00007041  00000+0 -50723-3 0  9999
2 58490  43.0043 271.6211 0001314 247.2322 112.8382 15.02494557 50421
STARLINK-30953          
1 58491U 23186U   24298.81087451  .00004869  00000+0  19599-3 0  9998
2 58491  43.0009 216.5174 0001113 311.4422  48.6333 15.25888935 51023
STARLINK-30986          
1 58492U 23186V   24298.30577920  .00001325  00000+0  11318-3 0  9993
2 58492  43.0038 271.5442 0000993 269.4238  90.6490 15.02527920 50420
STARLINK-30985          
1 58493U 23186W   24298.43542569  .00004162  00000+0  32319-3 0  9995
2 58493  43.0058 270.7968 0000856 240.9083 119.1674 15.02512109 50443
STARLINK-30981          
1 58494U 23186X   24298.89742404 -.00002425  00000+0 -16440-3 0  9995
2 58494  43.0032 268.2428 0001099 247.8757 112.1969 15.02559103 50516
STARLINK-31002          
1 58495U 23186Y   24298.29579813 -.00000545  00000+0 -25259-4 0  9992
2 58495  43.0047 271.4703 0001321 267.2944  92.7747 15.02532387 50597
STARLINK-31026          
1 58508U 23191A   24298.34625912 -.00000253  00000+0 -36807-5 0  9999
2 58508  43.0035 311.2248 0000887 277.4977  82.5765 15.02531328 50042
STARLINK-31020          
1 58509U 23191B   24298.54247223 -.00000437  00000+0 -17264-4 0  9996
2 58509  43.0039 310.9684 0001030 270.5836  89.4888 15.02537019 49948
STARLINK-30989          
1 58510U 23191C   24298.49118197  .00000296  00000+0  36975-4 0  9990
2 58510  43.0041 309.7411 0000915 278.0767  81.9972 15.02534367 50074
STARLINK-30968          
1 58511U 23191D   24298.48784444 -.00000600  00000+0 -29315-4 0  9995
2 58511  43.0048 309.7125 0001110 276.5315  83.5401 15.02544516 50043
STARLINK-30982          
1 58512U 23191E   24298.48452171  .00000079  00000+0  20950-4 0  9999
2 58512  43.0032 309.6898 0000865 263.3573  96.7171 15.02535067 50040
STARLINK-30998          
1 58513U 23191F   24298.48118908  .00000448  00000+0  48248-4 0  9997
2 58513  43.0010 309.6577 0000686 224.4625 135.6162 15.02533841 50072
STARLINK-30983          
1 58514U 23191G   24298.50437990 -.00000054  00000+0  11094-4 0  9999
2 58514  43.0044 308.9843 0000748 258.6632 101.4126 15.02539742 49709
STARLINK-31017          
1 58515U 23191H   24299.25001157  .00128465  00000+0  23019-2 0  9999
2 58515  43.0017 193.9090 0008874 242.5899  77.9570 15.48738326 51310
STARLINK-31028          
1 58516U 23191J   24298.34157034  .00001034  00000+0  91614-4 0  9995
2 58516  43.0034 310.3321 0001116 264.3404  95.7311 15.02522478 50025
STARLINK-31011          
1 58517U 23191K   24298.34490767 -.00000769  00000+0 -41845-4 0  9996
2 58517  43.0045 310.3556 0000928 276.6221  83.4515 15.02531733 50025
STARLINK-31021          
1 58518U 23191L   24298.29495588 -.00001948  00000+0 -12915-3 0  9992
2 58518  43.0036 309.9678 0001226 270.3221  89.7481 15.02541069 50022
STARLINK-31010          
1 58519U 23191M   24298.23180595 -.00000925  00000+0 -53429-4 0  9996
2 58519  43.0020 310.3187 0000953 255.7982 104.2754 15.02531026 49985
STARLINK-31003          
1 58520U 23191N   24298.33824534 -.00001120  00000+0 -67870-4 0  9990
2 58520  43.0036 310.3054 0001041 263.4754  96.5970 15.02536389 50059
STARLINK-31015          
1 58521U 23191P   24298.53434665 -.00001787  00000+0 -11727-3 0  9993
2 58521  43.0046 309.1994 0000978 275.3851  84.6879 15.02536962 50028
STARLINK-31023          
1 58522U 23191Q   24298.39805920 -.00000558  00000+0 -26227-4 0  9991
2 58522  43.0027 309.8920 0001155 273.4528  86.6182 15.02539325 50038
STARLINK-30932          
1 58523U 23191R   24298.46121027 -.00000876  00000+0 -49808-4 0  9992
2 58523  43.0039 309.5071 0001196 260.2470  99.8237 15.02536556 49994
STARLINK-30992          
1 58524U 23191S   24298.39140571 -.00004079  00000+0 -28702-3 0  9998
2 58524  43.0047 309.8477 0000083  45.1114 314.9735 15.02545137 50032
STARLINK-30948          
1 58525U 23191T   24298.45455117 -.00000406  00000+0 -14993-4 0  9999
2 58525  43.0036 309.4561 0001283 257.8985 102.1713 15.02534037 50076
STARLINK-31013          
1 58526U 23191U   24298.51770049 -.00001138  00000+0 -69221-4 0  9998
2 58526  43.0017 309.0659 0000753 236.9652 123.1118 15.02530756 50054
STARLINK-31001          
1 58527U 23191V   24298.50101516  .00001894  00000+0  15510-3 0  9993
2 58527  43.0038 308.8585 0001226 269.3954  90.6747 15.02565415 49913
STARLINK-31004          
1 58528U 23191W   24298.51436792 -.00000364  00000+0 -11904-4 0  9999
2 58528  43.0041 309.0436 0001005 292.4186  67.6550 15.02541993 50075
STARLINK-30988          
1 58529U 23191X   24298.37807937  .00000844  00000+0  77543-4 0  9999
2 58529  43.0026 309.7456 0001005 271.5569  88.5158 15.02543528 50039
STARLINK-31009          
1 58530U 23191Y   24298.50770586 -.00001149  00000+0 -70017-4 0  9995
2 58530  43.0032 308.9980 0001092 253.8096 106.2626 15.02538205 50073
STARLINK-31012          
1 58531U 23192A   24298.83429613  .00004997  00000+0  18067-3 0  9993
2 58531  53.1590 229.0636 0000955  94.9385 265.1725 15.30211309 49301
STARLINK-31035          
1 58532U 23192B   24298.55510476  .00001648  00000+0  67754-4 0  9999
2 58532  53.1611 230.1373 0001567  87.9697 272.1483 15.30195753 49263
STARLINK-31036          
1 58533U 23192C   24298.80381501  .00002583  00000+0  99302-4 0  9996
2 58533  53.1627 229.6054 0000739  94.2154 265.8932 15.30200919 49291
STARLINK-30936          
1 58534U 23192D   24298.50984988  .00001460  00000+0  61430-4 0  9996
2 58534  53.1621 230.6050 0001142  85.7516 274.3615 15.30195552 49255
